SAR-LUPE 2              
1 31797U 07030A   26176.86437294  .00013773  00000+0  23455-3 0  9994
2 31797  98.1043 282.3804 0002376 186.1150 174.0071 15.51535013 58283
SAPPHIRE                
1 39088U 13009C   26176.80650763  .00000098  00000+0  49305-4 0  9999
2 39088  98.4264 356.0576 0010406 218.4767 141.5678 14.35242739697814
PRAETORIAN SDA_602      
1 65565U 25203A   26176.84207647  .00000104  00000+0  82637-4 0  9993
2 65565  81.3029   2.7511 0006260 162.4701 197.6673 13.84278810 39893
PRAETORIAN SDA_603      
1 65566U 25203B   26176.65421488  .00000160  00000+0  13355-3 0  9996
2 65566  81.3037   2.8470 0009792 164.5055 195.6403 13.83906195 39876
PRAETORIAN SDA_604      
1 65567U 25203C   26176.60683200  .00000078  00000+0  60635-4 0  9996
2 65567  81.3052   3.3160 0005733 168.4892 191.6397 13.83048295 39842
PRAETORIAN SDA_605      
1 65568U 25203D   26176.85910867  .00000062  00000+0  45672-4 0  9993
2 65568  81.3019   2.7375 0008563 159.9002 200.2493 13.83434882 39899
PRAETORIAN SDA_606      
1 65569U 25203E   26176.84315993  .00000066  00000+0  48928-4 0  9993
2 65569  81.3052   2.9804 0006433 162.5037 197.6342 13.83198624 39880
PRAETORIAN SDA_607      
1 65570U 25203F   26176.84437825  .00000127  00000+0  10268-3 0  9997
2 65570  81.3037   2.6259 0009187 164.2563 195.8881 13.84284887 39907
PRAETORIAN SDA_608      
1 65571U 25203G   26176.60778758  .00000036  00000+0  21513-4 0  9990
2 65571  81.3006   3.0107 0006238 167.7905 192.3404 13.83817212 39853
PRAETORIAN SDA_609      
1 65572U 25203H   26176.61030948  .00000242  00000+0  20638-3 0  9999
2 65572  81.3051   2.9902 0007157 163.0159 197.1239 13.84209073 39867
PRAETORIAN SDA_610      
1 65573U 25203J   26176.66012596  .00000075  00000+0  57060-4 0  9998
2 65573  81.3007   2.9209 0007013 167.3131 192.8203 13.83768268 39865
PRAETORIAN SDA_611      
1 65574U 25203K   26176.66373429 -.00000028  00000+0 -36190-4 0  9995
2 65574  81.3011   3.0896 0005782 170.6895 189.4369 13.83309832 39852
PRAETORIAN SDA_612      
1 65575U 25203L   26176.85948904  .00000224  00000+0  18791-3 0  9995
2 65575  81.3030   2.4732 0009611 163.4213 196.7260 13.85040074 39915
PRAETORIAN SDA_613      
1 65576U 25203M   26176.60145385  .00000068  00000+0  51343-4 0  9998
2 65576  81.2998   3.1504 0006025 161.3784 198.7594 13.82765805 39846
PRAETORIAN SDA_614      
1 65577U 25203N   26176.85030240  .00000070  00000+0  51849-4 0  9993
2 65577  81.3013   2.5616 0007506 160.4449 199.6998 13.84777965 39914
PRAETORIAN SDA_615      
1 65578U 25203P   26176.61251132  .00000170  00000+0  14164-3 0  9992
2 65578  81.3022   2.7513 0009367 162.8075 197.3401 13.84436379 39871
PRAETORIAN SDA_616      
1 65579U 25203Q   26176.59086955  .00000199  00000+0  17043-3 0  9999
2 65579  81.3060   3.3075 0005711 168.9073 191.2210 13.83268975 39840
PRAETORIAN SDA_617      
1 65580U 25203R   26176.61319032  .00000044  00000+0  29308-4 0  9996
2 65580  81.3035   3.1172 0007755 161.5099 198.6340 13.83150379 39851
PRAETORIAN SDA_618      
1 65581U 25203S   26176.57714321  .00000128  00000+0  10368-3 0  9990
2 65581  81.3019   2.7106 0010125 164.8353 195.3109 13.84671252 39878
PRAETORIAN SDA_619      
1 65582U 25203T   26176.83523564  .00000179  00000+0  15098-3 0  9998
2 65582  81.3046   2.7822 0008527 162.6079 197.5371 13.83805852 40521
PRAETORIAN SDA_620      
1 65583U 25203U   26176.64745497  .00000092  00000+0  72352-4 0  9990
2 65583  81.3030   2.9780 0007947 158.7529 201.3959 13.83618782 39866
PRAETORIAN SDA_621      
1 65584U 25203V   26176.62012243  .00000075  00000+0  57240-4 0  9995
2 65584  81.3021   2.9179 0007816 156.3515 203.8002 13.83802012 39860
PRAETORIAN SDA_601      
1 65585U 25203W   26176.59461292 -.00000059  00000+0 -64530-4 0  9998
2 65585  81.3041   3.2481 0005697 172.2501 187.8744 13.83168246 39846
VICTUS HAZE PUMA        
1 69646U 26142A   26176.63786164  .00004341  00000+0  19951-3 0  9998
2 69646  97.4480  74.1659 0021135 297.4953  62.4134 15.20709621   955
